{
"type": "FeatureCollection",
"name": "management_zones",
"crs": { "type": "name", "properties": { "name": "urn:ogc:def:crs:OGC:1.3:CRS84" } },
"features": [
{ "type": "Feature", "properties": { "id": "zone-A", "name": "生态保育区", "zone_code": "A01", "risk_level": "低", "area_ha": 74.2, "manager": "张敏" }, "geometry": { "type": "Polygon", "coordinates": [ [ [ 116.349607026920921, 39.976490214785613 ], [ 116.378, 39.9875 ], [ 116.378, 39.997 ], [ 116.349607026920921, 39.976490214785613 ] ] ] } },
{ "type": "Feature", "properties": { "id": "zone-B", "name": "公共活动区", "zone_code": "B01", "risk_level": "中", "area_ha": 82.6, "manager": "李伟" }, "geometry": { "type": "Polygon", "coordinates": [ [ [ 116.378, 39.984 ], [ 116.394, 39.984 ], [ 116.394, 39.997 ], [ 116.378, 39.997 ], [ 116.378, 39.984 ] ] ] } },
{ "type": "Feature", "properties": { "id": "zone-C", "name": "设施维护区", "zone_code": "C01", "risk_level": "高", "area_ha": 91.3, "manager": "王芳" }, "geometry": { "type": "Polygon", "coordinates": [ [ [ 116.362, 39.9745 ], [ 116.394, 39.9745 ], [ 116.394, 39.984 ], [ 116.378, 39.984 ], [ 116.362, 39.9875 ], [ 116.362, 39.9745 ] ] ] } }
]
}
